YAOGAN 8                
1 36121U 09072A   23097.76778370  .00000236  00000+0  85967-3 0  9995
2 36121 100.2881  22.5614 0021804  66.1041 294.2347 13.04999883636615
XIWANG-1 (HOPE-1)       
1 36122U 09072B   23098.16331181 -.00000003  00000+0  10606-3 0  9997
2 36122 100.2311  64.2702 0007860  28.3895 331.7645 13.16380733639698
HELIOS 2B               
1 36124U 09073A   23098.44450993  .00049667  00000+0  67778-3 0  9994
2 36124  98.1975  81.4360 0137245 176.8281 335.0609 15.46932094713419
DIRECTV 12              
1 36131U 09075A   23098.08887185 -.00000095  00000+0  00000+0 0  9995
2 36131   0.0035 345.2854 0000324 355.5940 144.5040  1.00271200 48693
BEIDOU-2 G1             
1 36287U 10001A   23098.55390912 -.00000271  00000+0  00000+0 0  9993
2 36287   2.0498  54.3687 0003043 300.0326 181.9547  1.00268364 48476
RADUGA-1M 2             
1 36358U 10002A   23098.05458759 -.00000175  00000+0  00000+0 0  9995
2 36358   0.5943  95.3525 0003539 284.6634 280.7334  1.00271112 48318
SDO                     
1 36395U 10005A   23098.01754255 -.00000036  00000+0  00000+0 0  9991
2 36395  32.2349 104.4727 0002221 239.7739 116.2832  1.00273921 48339
INTELSAT 16 (IS-16)     
1 36397U 10006A   23097.45743843 -.00000236  00000+0  00000+0 0  9994
2 36397   0.0164 292.5798 0001877  91.4713 259.8911  1.00272202 47957
COSMOS 2460 [GLONASS-M] 
1 36402U 10007C   23096.57132803 -.00000052  00000+0  00000+0 0  9998
2 36402  65.9177 353.6811 0002278   9.8531 289.5930  2.13106323101935
GOES 15                 
1 36411U 10008A   23097.57107809  .00000087  00000+0  00000+0 0  9995
2 36411   0.1861  94.5389 0001880 245.9016 291.0045  1.00131783 47955
YAOGAN 9A               
1 36413U 10009A   23097.85748888  .00000011  00000+0  96896-4 0  9997
2 36413  63.3772 131.5206 0437141  13.7133 347.5331 13.45274049643180
YAOGAN 9B               
1 36414U 10009B   23097.54885694  .00000003  00000+0  88704-4 0  9991
2 36414  63.3813 131.9130 0436672  13.0684 348.1239 13.45284246643172
YAOGAN 9C               
1 36415U 10009C   23097.47319418  .00000021  00000+0  10580-3 0  9996
2 36415  63.3808 132.7081 0437258  13.3638 347.8540 13.45288832643136
ECHOSTAR 14             
1 36499U 10010A   23098.51960108  .00000009  00000+0  00000+0 0  9992
2 36499   0.0154 237.2474 0001839 141.9726 245.4552  1.00271440 47842
CRYOSAT 2               
1 36508U 10013A   23098.23088395  .00000309  00000+0  76121-4 0  9999
2 36508  92.0288 355.5011 0003424   3.3593 356.7637 14.51899563688942
SES-1                   
1 36516U 10016A   23098.01754255 -.00000106  00000+0  00000+0 0  9996
2 36516   0.0572  71.7887 0002496 306.0524  83.4945  1.00272800 47448
COSMOS 2463             
1 36519U 10017A   23098.32856655  .00000083  00000+0  75035-4 0  9999
2 36519  82.9648  26.2147 0037287 123.5645 355.6030 13.71502730648209
ASTRA 3B                
1 36581U 10021A   23097.85188341  .00000146  00000+0  00000+0 0  9995
2 36581   0.0850  60.1655 0003205 312.2840 153.5826  1.00274966 46950
COMSATBW-2              
1 36582U 10021B   23097.84077054  .00000097  00000+0  00000+0 0  9998
2 36582   0.0344 105.3213 0002471 286.2232 120.1122  1.00270834 47297
NAVSTAR 65 (USA 213)    
1 36585U 10022A   23098.02495343  .00000020  00000+0  00000+0 0  9994
2 36585  54.6377 255.6174 0109712  59.2458 120.0538  2.00554133 94199
BEIDOU-2 G3             
1 36590U 10024A   23097.04981640 -.00000126  00000+0  00000+0 0  9991
2 36590   2.1047  55.5047 0009681 341.4181 255.7131  1.00272160 47072
BADR-5                  
1 36592U 10025A   23098.04282035  .00000153  00000+0  00000+0 0  9996
2 36592   0.0292 143.4453 0002449 284.0772 169.9379  1.00268873 47205
SJ-12                   
1 36596U 10027A   23098.53179126  .00005097  00000+0  41508-3 0  9996
2 36596  97.7514  88.7118 0012756 106.9693 253.2929 14.99899793699231
TANDEM-X                
1 36605U 10030A   23095.10991483  .00002492  00000+0  12179-3 0  9997
2 36605  97.4455 103.5309 0001754  89.0213 348.6233 15.19160265709143
COMS 1                  
1 36744U 10032A   23098.54533065 -.00000334  00000+0  00000+0 0  9992
2 36744   1.8087  89.7992 0000928 291.0237 140.1889  1.00271916 46960
ARABSAT-5A              
1 36745U 10032B   23097.85188341  .00000162  00000+0  00000+0 0  9997
2 36745   0.0697  47.8905 0004500 343.8740 141.2379  1.00272314 46939
ECHOSTAR 15             
1 36792U 10034A   23097.73852344 -.00000273  00000+0  00000+0 0  9993
2 36792   0.0478  74.1663 0002262 281.6384  44.1498  1.00274081 46709
CARTOSAT-2B             
1 36795U 10035A   23098.42826177  .00001546  00000+0  21737-3 0  9996
2 36795  97.9179 159.9419 0013161  15.6148 344.5448 14.78724040687650
AISSAT 1                
1 36797U 10035C   23097.53471598  .00002556  00000+0  28209-3 0  9995
2 36797  98.2321 297.5397 0009541 295.4341  64.5887 14.88390994690297
ALSAT 2A                
1 36798U 10035D   23098.41646521  .00001734  00000+0  29097-3 0  9997
2 36798  97.8278 133.5881 0001616  80.3196 279.8187 14.70891862682235
TISAT 1                 
1 36799U 10035E   23098.18030460  .00006468  00000+0  58883-3 0  9995
2 36799  98.1467 325.0746 0010755 197.8748 162.2094 14.95502963691969
BEIDOU-2 IGSO-1         
1 36828U 10036A   23097.92221530 -.00000094  00000+0  00000+0 0  9994
2 36828  54.2048 173.5395 0035595 189.6696 272.8923  1.00265828 46530
NILESAT 201             
1 36830U 10037A   23098.43243833 -.00000049  00000+0  00000+0 0  9995
2 36830   0.0443 149.3662 0003058 248.7133 307.0267  1.00270955 46608
RASCOM-QAF 1R           
1 36831U 10037B   23097.96656196  .00000027  00000+0  00000+0 0  9998
2 36831   0.0375 115.9142 0005177 252.1682 178.7174  1.00271892 46596
YAOGAN 10               
1 36834U 10038A   23098.43005341  .00001317  00000+0  17371-3 0  9991
2 36834  97.9698 112.8340 0001259  79.3912 280.7443 14.81765314684456
AEHF-1 (USA 214)        
1 36868U 10039A   23098.25349392  .00000037  00000+0  00000+0 0  9991
2 36868   5.2741  82.8919 0004355 351.5613 217.0408  1.00273410 46741
TIANHUI 1               
1 36985U 10040A   23098.20574347  .00011096  00000+0  36507-3 0  9990
2 36985  97.6365 328.1202 0026513 347.2449  12.8115 15.31355155702176
COSMOS 2467             
1 37152U 10043A   23097.98479611  .00000003  00000+0 -47593-4 0  9997
2 37152  82.4539  74.4951 0002003 124.4856 290.7683 12.42923407570670
STRELA 3                
1 37153U 10043B   23097.77706279  .00000053  00000+0  31695-3 0  9997
2 37153  82.4533  84.9804 0008836  95.3482 264.8608 12.40754239569781
COSMOS 2468             
1 37154U 10043C   23098.20453626  .00000026  00000+0  11548-3 0  9997
2 37154  82.4582  72.2551 0013834 337.2248  32.8816 12.43687448571009
QZS-1 (MICHIBIKI-1)     
1 37158U 10045A   23097.45762542 -.00000082  00000+0  00000+0 0  9999
2 37158  42.6487 129.3419 0756753 270.1571  97.6116  1.00295614 46044
YAOGAN 11               
1 37165U 10047A   23097.67588876  .00001780  00000+0  25463-3 0  9998
2 37165  98.3934 251.8480 0038093  16.0652 344.1755 14.77519701675561
ZHEDA PIXING 1B         
1 37166U 10047B   23098.52186326  .00003052  00000+0  38239-3 0  9997
2 37166  97.7988  70.4926 0023545 145.3007 214.9720 14.82760181677542
ZHEDA PIXING 1C         
1 37167U 10047C   23098.49697447  .00003057  00000+0  38435-3 0  9998
2 37167  97.8312  69.5926 0023113 147.5528 212.7096 14.82619391677499
SBSS (USA 216)          
1 37168U 10048A   23098.54324378  .00000972  00000+0  12791-3 0  9996
2 37168  97.9108 317.0104 0001321 118.9286 270.8734 14.82407358677462
SHIJIAN-6 04A (SJ-6 04A)
1 37179U 10051A   23098.49131951  .00006390  00000+0  55065-3 0  9990
2 37179  97.7907  85.1828 0025055 229.6135 130.2879 14.97436222681471
SHIJIAN-6 04B (SJ-6 04B)
1 37180U 10051B   23098.38445271  .00002359  00000+0  22350-3 0  9995
2 37180  97.8015  83.9109 0010184 237.8279 122.1967 14.94542778681298
XM-5                    
1 37185U 10053A   23098.11542561 -.00000014  00000+0  00000+0 0  9994
2 37185   0.0261 270.7687 0000849 353.6843 218.0294  1.00271095 45757
GLOBALSTAR M079         
1 37188U 10054A   23097.38269038 -.00000109  00000+0 -30797-4 0  9998
2 37188  52.0045  60.6065 0000477  51.0220 114.1767 12.62270368575197
GLOBALSTAR M074         
1 37189U 10054B   23097.32983050 -.00000114  00000+0 -55574-4 0  9996
2 37189  52.0021  60.2150 0000468  71.4618  93.0344 12.62276713575792
GLOBALSTAR M076         
1 37190U 10054C   23098.19417483 -.00000128  00000+0 -13607-3 0  9991
2 37190  52.0040  57.6838 0000892  53.1406 319.6080 12.62272804575983
GLOBALSTAR M077         
1 37191U 10054D   23097.78928845 -.00000084  00000+0  10983-3 0  9999
2 37191  52.0100  15.5419 0000687  74.4760 318.4172 12.62274400576670
GLOBALSTAR M075         
1 37192U 10054E   23098.22159038 -.00000108  00000+0 -21506-4 0  9992
2 37192  51.9934 100.2995 0000357  43.9991  35.9421 12.62266956575221
GLOBALSTAR M073         
1 37193U 10054F   23097.50199700 -.00000083  00000+0  11399-3 0  9992
2 37193  52.0086  15.7001 0000687  75.4216 332.6156 12.62269091576592
BSAT-3B                 
1 37207U 10056B   23098.53341544 -.00000342  00000+0  00000+0 0  9990
2 37207   0.0570  17.7534 0003485 340.3826 140.2719  1.00272398 45584
BEIDOU-2 G4             
1 37210U 10057A   23098.28461176 -.00000104  00000+0  00000+0 0  9997
2 37210   0.8769  49.1247 0001093 213.7113 195.8195  1.00270909 45592
FENGYUN 3B              
1 37214U 10059A   23098.29437795  .00000170  00000+0  11302-3 0  9997
2 37214  99.0888 114.4663 0021274 242.3152 117.5866 14.14322314642631
COSMO-SKYMED 4          
1 37216U 10060A   23098.46946673  .00001038  00000+0  13688-3 0  9993
2 37216  97.8864 282.9527 0001417  83.8402 276.2960 14.82167834671950
SKYTERRA 1              
1 37218U 10061A   23098.46538966 -.00000108  00000+0  00000+0 0  9996
2 37218   2.8486  41.0620 0004104  17.7259 203.8884  1.00271934 45531
